{
    "links": {
        "self": "http://www.neowsapp.com/rest/v1/neo/3440392?api_key=iIulBulltgU6a56xZRHN4H3l9WmuAYTsLGpBGhQ2"
    },
    "id": "3440392",
    "neo_reference_id": "3440392",
    "name": "(2008 WK61)",
    "designation": "2008 WK61",
    "nasa_jpl_url": "http://ssd.jpl.nasa.gov/sbdb.cgi?sstr=3440392",
    "absolute_magnitude_h": 20.7,
    "estimated_diameter": {
        "kilometers": {
            "estimated_diameter_min": 0.1925550782,
            "estimated_diameter_max": 0.4305662442
        },
        "meters": {
            "estimated_diameter_min": 192.5550781879,
            "estimated_diameter_max": 430.566244241
        },
        "miles": {
            "estimated_diameter_min": 0.1196481415,
            "estimated_diameter_max": 0.2675413778
        },
        "feet": {
            "estimated_diameter_min": 631.7424027221,
            "estimated_diameter_max": 1412.6189567557
        }
    },
    "is_potentially_hazardous_asteroid": true,
    "close_approach_data": [
        {
            "close_approach_date": "2008-11-30",
            "close_approach_date_full": "2008-Nov-30 10:21",
            "epoch_date_close_approach": 1228040460000,
            "relative_velocity": {
                "kilometers_per_second": "13.2495847563",
                "kilometers_per_hour": "47698.5051225914",
                "miles_per_hour": "29637.9961413124"
            },
            "miss_distance": {
                "astronomical": "0.0872173788",
                "lunar": "33.9275603532",
                "kilometers": "13047534.095463156",
                "miles": "8107361.7435613128"
            },
            "orbiting_body": "Earth"
        }
    ],
    "orbital_data": {
        "orbit_id": "13",
        "orbit_determination_date": "2017-04-06 09:02:04",
        "first_observation_date": "2008-11-21",
        "last_observation_date": "2008-12-07",
        "data_arc_in_days": 16,
        "observations_used": 52,
        "orbit_uncertainty": "8",
        "minimum_orbit_intersection": ".0212408",
        "jupiter_tisserand_invariant": "4.117",
        "epoch_osculation": "2454798.5",
        "eccentricity": ".419460959836676",
        "semi_major_axis": "1.658452653419988",
        "inclination": "17.15291987171271",
        "ascending_node_longitude": "253.5018596267116",
        "orbital_period": "780.1049670638447",
        "perihelion_distance": ".9627965115727578",
        "perihelion_argument": "212.478632507014",
        "aphelion_distance": "2.354108795267218",
        "perihelion_time": "2454828.116220428743",
        "mean_anomaly": "346.3328144230687",
        "mean_motion": ".4614763592071029",
        "equinox": "J2000",
        "orbit_class": {
            "orbit_class_type": "APO",
            "orbit_class_description": "Near-Earth asteroid orbits which cross the Earth’s orbit similar to that of 1862 Apollo",
            "orbit_class_range": "a (semi-major axis) > 1.0 AU; q (perihelion) < 1.017 AU"
        }
    },
    "is_sentry_object": false
}